{
  "norad_id": 55167,
  "name": "ONEWEB-0626",
  "history": [
    {
      "epoch": "2026-03-28T19:25:25.557312Z",
      "apogee_km": 1195.3954300652413,
      "perigee_km": 1192.0336794119676,
      "latitude_deg": 7.471273440588979e-05,
      "longitude_deg": -95.74442770911365,
      "height_km": 1196.0696438168927,
      "semi_major_axis_km": 7571.851554738604,
      "eccentricity": 0.00022199,
      "inclination_deg": 87.9176,
      "raan_deg": 21.8365,
      "arg_perigee_deg": 71.2674,
      "mean_anomaly_deg": 288.8699,
      "mean_motion_rev_day": 13.17648662
    },
    {
      "epoch": "2026-03-29T04:32:09.969792Z",
      "apogee_km": 1195.3870932410437,
      "perigee_km": 1192.0388211899626,
      "latitude_deg": -2.2998571926828737e-05,
      "longitude_deg": 127.12088640310108,
      "height_km": 1196.0690208921817,
      "semi_major_axis_km": 7571.849957215502,
      "eccentricity": 0.0002211,
      "inclination_deg": 87.9177,
      "raan_deg": 21.7611,
      "arg_perigee_deg": 71.2232,
      "mean_anomaly_deg": 288.9139,
      "mean_motion_rev_day": 13.17649079
    },
    {
      "epoch": "2026-03-30T04:13:41.483712Z",
      "apogee_km": 1195.3751454854428,
      "perigee_km": 1192.052768722484,
      "latitude_deg": -8.3555285890249e-05,
      "longitude_deg": 130.57077738103067,
      "height_km": 1196.06383210681,
      "semi_major_axis_km": 7571.850957103963,
      "eccentricity": 0.00021939,
      "inclination_deg": 87.9178,
      "raan_deg": 21.5653,
      "arg_perigee_deg": 70.8438,
      "mean_anomaly_deg": 289.293,
      "mean_motion_rev_day": 13.17648818
    },
    {
      "epoch": "2026-03-30T07:52:23.252160Z",
      "apogee_km": 1195.3708994214003,
      "perigee_km": 1192.0573059418448,
      "latitude_deg": -3.147251012378941e-06,
      "longitude_deg": 75.71685307586652,
      "height_km": 1196.0621689970758,
      "semi_major_axis_km": 7571.851102681622,
      "eccentricity": 0.00021881,
      "inclination_deg": 87.9178,
      "raan_deg": 21.5351,
      "arg_perigee_deg": 70.7248,
      "mean_anomaly_deg": 289.412,
      "mean_motion_rev_day": 13.1764878
    },
    {
      "epoch": "2026-03-30T20:37:49.483200Z",
      "apogee_km": 1195.3694368606575,
      "perigee_km": 1192.0585692910518,
      "latitude_deg": 4.386907096749798e-05,
      "longitude_deg": -116.2717637448104,
      "height_km": 1196.0574083952,
      "semi_major_axis_km": 7571.851003075854,
      "eccentricity": 0.00021863,
      "inclination_deg": 87.9179,
      "raan_deg": 21.4297,
      "arg_perigee_deg": 70.5373,
      "mean_anomaly_deg": 289.5995,
      "mean_motion_rev_day": 13.17648806
    },
    {
      "epoch": "2026-03-31T13:01:57.410976Z",
      "apogee_km": 1195.3634519058905,
      "perigee_km": 1192.062125398037,
      "latitude_deg": -2.1768314435397355e-05,
      "longitude_deg": -3.1141121012178297,
      "height_km": 1196.0455508543648,
      "semi_major_axis_km": 7571.8497886519635,
      "eccentricity": 0.000218,
      "inclination_deg": 87.918,
      "raan_deg": 21.294,
      "arg_perigee_deg": 70.0852,
      "mean_anomaly_deg": 290.0514,
      "mean_motion_rev_day": 13.17649123
    },
    {
      "epoch": "2026-04-01T12:43:28.993152Z",
      "apogee_km": 1195.3572916822277,
      "perigee_km": 1192.0726223032834,
      "latitude_deg": -1.1230454624652744e-05,
      "longitude_deg": 0.3353969492817014,
      "height_km": 1196.0341470389133,
      "semi_major_axis_km": 7571.851956992755,
      "eccentricity": 0.0002169,
      "inclination_deg": 87.918,
      "raan_deg": 21.0981,
      "arg_perigee_deg": 69.4741,
      "mean_anomaly_deg": 290.6623,
      "mean_motion_rev_day": 13.17648557
    },
    {
      "epoch": "2026-04-02T12:25:00.454368Z",
      "apogee_km": 1195.3441098451367,
      "perigee_km": 1192.0789773161741,
      "latitude_deg": -3.3872286940916736e-06,
      "longitude_deg": 3.785410927457848,
      "height_km": 1196.022121849865,
      "semi_major_axis_km": 7571.848543580655,
      "eccentricity": 0.00021561,
      "inclination_deg": 87.9183,
      "raan_deg": 20.9022,
      "arg_perigee_deg": 69.0211,
      "mean_anomaly_deg": 291.1151,
      "mean_motion_rev_day": 13.17649448
    }
  ]
}